IRIDIUM 136             
1 42962U 17061H   24164.17243755 -.00000011  00000+0 -10934-4 0  9993
2 42962  86.3959 332.4175 0001705  87.0899 273.0491 14.34216175349482
